{"type": "FeatureCollection", "features": [{"type": "Feature", "properties": {"norad_id": 37846, "name": "GSAT0101 (GALILEO-PFM)", "group": "galileo", "lat": -6.504569721431533, "lon": 171.29227680166227, "alt_km": 23227.57408375207, "timestamp": "2025-12-04T09:47:37.784136+00:00", "meta": {"OBJECT_NAME": "GSAT0101 (GALILEO-PFM)", "OBJECT_ID": "2011-060A", "EPOCH": "2025-12-03T12:22:23.898432", "MEAN_MOTION": 1.70475497, "ECCENTRICITY": 0.00027974, "INCLINATION": 57.0548, "RA_OF_ASC_NODE": 347.0705, "ARG_OF_PERICENTER": 310.1579, "MEAN_ANOMALY": 49.8533, "EPHEMERIS_TYPE": 0, "CLASSIFICATION_TYPE": "U", "NORAD_CAT_ID": 37846, "ELEMENT_SET_NO": 999, "REV_AT_EPOCH": 8778, "BSTAR": 0, "MEAN_MOTION_DOT": -6.8e-07, "MEAN_MOTION_DDOT": 0}, "tle": {"line1": "1 37846U 11060A   25337.51555438 -.00000068  00000+0  00000+0 0  9995", "line2": "2 37846  57.0548 347.0705 0002797 310.1579  49.8533  1.70475497 87782"}}, "geometry": {"type": "Point", "coordinates": [171.29227680166227, -6.504569721431533]}}, {"type": "Feature", "properties": {"norad_id": 37847, "name": "GSAT0102 (GALILEO-FM2)", "group": "galileo", "lat": -42.19627643563007, "lon": -156.93018834768336, "alt_km": 23222.81962768496, "timestamp": "2025-12-04T09:47:37.784159+00:00", "meta": {"OBJECT_NAME": "GSAT0102 (GALILEO-FM2)", "OBJECT_ID": "2011-060B", "EPOCH": "2025-12-02T06:27:38.704608", "MEAN_MOTION": 1.70475743, "ECCENTRICITY": 0.00047518, "INCLINATION": 57.0559, "RA_OF_ASC_NODE": 347.1049, "ARG_OF_PERICENTER": 306.1199, "MEAN_ANOMALY": 54.4344, "EPHEMERIS_TYPE": 0, "CLASSIFICATION_TYPE": "U", "NORAD_CAT_ID": 37847, "ELEMENT_SET_NO": 999, "REV_AT_EPOCH": 8777, "BSTAR": 0, "MEAN_MOTION_DOT": -6.2e-07, "MEAN_MOTION_DDOT": 0}, "tle": {"line1": "1 37847U 11060B   25336.26919797 -.00000062  00000+0  00000+0 0  9993", "line2": "2 37847  57.0559 347.1049 0004751 306.1199  54.4344  1.70475743 87777"}}, "geometry": {"type": "Point", "coordinates": [-156.93018834768336, -42.19627643563007]}}, {"type": "Feature", "properties": {"norad_id": 38857, "name": "GSAT0103 (GALILEO-FM3)", "group": "galileo", "lat": 13.829079658542362, "lon": -82.79716370717601, "alt_km": 23222.36914607074, "timestamp": "2025-12-04T09:47:37.784175+00:00", "meta": {"OBJECT_NAME": "GSAT0103 (GALILEO-FM3)", "OBJECT_ID": "2012-055A", "EPOCH": "2025-12-01T05:01:21.613152", "MEAN_MOTION": 1.70473256, "ECCENTRICITY": 0.00023005, "INCLINATION": 55.6823, "RA_OF_ASC_NODE": 106.9832, "ARG_OF_PERICENTER": 267.1494, "MEAN_ANOMALY": 92.7944, "EPHEMERIS_TYPE": 0, "CLASSIFICATION_TYPE": "U", "NORAD_CAT_ID": 38857, "ELEMENT_SET_NO": 999, "REV_AT_EPOCH": 8163, "BSTAR": 0, "MEAN_MOTION_DOT": 4.2e-07, "MEAN_MOTION_DDOT": 0}, "tle": {"line1": "1 38857U 12055A   25335.20927793  .00000042  00000+0  00000+0 0  9995", "line2": "2 38857  55.6823 106.9832 0002300 267.1494  92.7944  1.70473256 81637"}}, "geometry": {"type": "Point", "coordinates": [-82.79716370717601, 13.829079658542362]}}, {"type": "Feature", "properties": {"norad_id": 40128, "name": "GSAT0201 (GALILEO 5)", "group": "galileo", "lat": 38.17631080933454, "lon": -35.70750112189405, "alt_km": 23035.835849096657, "timestamp": "2025-12-04T09:47:37.784188+00:00", "meta": {"OBJECT_NAME": "GSAT0201 (GALILEO 5)", "OBJECT_ID": "2014-050A", "EPOCH": "2025-11-28T09:00:06.762528", "MEAN_MOTION": 1.85519533, "ECCENTRICITY": 0.16464881, "INCLINATION": 49.0938, "RA_OF_ASC_NODE": 281.6492, "ARG_OF_PERICENTER": 171.7362, "MEAN_ANOMALY": 191.3851, "EPHEMERIS_TYPE": 0, "CLASSIFICATION_TYPE": "U", "NORAD_CAT_ID": 40128, "ELEMENT_SET_NO": 999, "REV_AT_EPOCH": 7459, "BSTAR": 0, "MEAN_MOTION_DOT": -4.8e-07, "MEAN_MOTION_DDOT": 0}, "tle": {"line1": "1 40128U 14050A   25332.37507827 -.00000048  00000+0  00000+0 0  9990", "line2": "2 40128  49.0938 281.6492 1646488 171.7362 191.3851  1.85519533 74599"}}, "geometry": {"type": "Point", "coordinates": [-35.70750112189405, 38.17631080933454]}}, {"type": "Feature", "properties": {"norad_id": 40129, "name": "GSAT0202 (GALILEO 6)", "group": "galileo", "lat": -48.16192247997922, "lon": -154.72049837335683, "alt_km": 22239.950839018296, "timestamp": "2025-12-04T09:47:37.784200+00:00", "meta": {"OBJECT_NAME": "GSAT0202 (GALILEO 6)", "OBJECT_ID": "2014-050B", "EPOCH": "2025-12-02T22:38:17.581056", "MEAN_MOTION": 1.8552031, "ECCENTRICITY": 0.1647571, "INCLINATION": 49.1042, "RA_OF_ASC_NODE": 280.5465, "ARG_OF_PERICENTER": 172.6616, "MEAN_ANOMALY": 190.1192, "EPHEMERIS_TYPE": 0, "CLASSIFICATION_TYPE": "U", "NORAD_CAT_ID": 40129, "ELEMENT_SET_NO": 999, "REV_AT_EPOCH": 7684, "BSTAR": 0, "MEAN_MOTION_DOT": -5.9e-07, "MEAN_MOTION_DDOT": 0}, "tle": {"line1": "1 40129U 14050B   25336.94325904 -.00000059  00000+0  00000+0 0  9994", "line2": "2 40129  49.1042 280.5465 1647571 172.6616 190.1192  1.85520310 76841"}}, "geometry": {"type": "Point", "coordinates": [-154.72049837335683, -48.16192247997922]}}, {"type": "Feature", "properties": {"norad_id": 40544, "name": "GSAT0203 (GALILEO 7)", "group": "galileo", "lat": -29.52676898540836, "lon": -34.819872855916955, "alt_km": 23214.79318134263, "timestamp": "2025-12-04T09:47:37.784212+00:00", "meta": {"OBJECT_NAME": "GSAT0203 (GALILEO 7)", "OBJECT_ID": "2015-017A", "EPOCH": "2025-12-02T16:58:12.961344", "MEAN_MOTION": 1.70475735, "ECCENTRICITY": 0.0006521, "INCLINATION": 56.849, "RA_OF_ASC_NODE": 346.954, "ARG_OF_PERICENTER": 268.5764, "MEAN_ANOMALY": 91.3871, "EPHEMERIS_TYPE": 0, "CLASSIFICATION_TYPE": "U", "NORAD_CAT_ID": 40544, "ELEMENT_SET_NO": 999, "REV_AT_EPOCH": 6585, "BSTAR": 0, "MEAN_MOTION_DOT": -6.5e-07, "MEAN_MOTION_DDOT": 0}, "tle": {"line1": "1 40544U 15017A   25336.70709446 -.00000065  00000+0  00000+0 0  9997", "line2": "2 40544  56.8490 346.9540 0006521 268.5764  91.3871  1.70475735 65856"}}, "geometry": {"type": "Point", "coordinates": [-34.819872855916955, -29.52676898540836]}}, {"type": "Feature", "properties": {"norad_id": 40545, "name": "GSAT0204 (GALILEO 8)", "group": "galileo", "lat": 10.79951718499654, "lon": 159.7679980511402, "alt_km": 23221.88583445303, "timestamp": "2025-12-04T09:47:37.784223+00:00", "meta": {"OBJECT_NAME": "GSAT0204 (GALILEO 8)", "OBJECT_ID": "2015-017B", "EPOCH": "2025-12-01T18:56:42.196992", "MEAN_MOTION": 1.70475405, "ECCENTRICITY": 0.00062658, "INCLINATION": 56.854, "RA_OF_ASC_NODE": 346.9967, "ARG_OF_PERICENTER": 260.0885, "MEAN_ANOMALY": 99.8817, "EPHEMERIS_TYPE": 0, "CLASSIFICATION_TYPE": "U", "NORAD_CAT_ID": 40545, "ELEMENT_SET_NO": 999, "REV_AT_EPOCH": 2888, "BSTAR": 0, "MEAN_MOTION_DOT": -6.1e-07, "MEAN_MOTION_DDOT": 0}, "tle": {"line1": "1 40545U 15017B   25335.78937728 -.00000061  00000+0  00000+0 0  9997", "line2": "2 40545  56.8540 346.9967 0006265 260.0885  99.8817  1.70475405 28881"}}, "geometry": {"type": "Point", "coordinates": [159.7679980511402, 10.79951718499654]}}, {"type": "Feature", "properties": {"norad_id": 40889, "name": "GSAT0205 (GALILEO 9)", "group": "galileo", "lat": -39.403463398055194, "lon": -168.08369594417294, "alt_km": 23226.762076825762, "timestamp": "2025-12-04T09:47:37.784235+00:00", "meta": {"OBJECT_NAME": "GSAT0205 (GALILEO 9)", "OBJECT_ID": "2015-045A", "EPOCH": "2025-12-02T03:27:57.508704", "MEAN_MOTION": 1.70472886, "ECCENTRICITY": 0.00058353, "INCLINATION": 55.0073, "RA_OF_ASC_NODE": 227.0512, "ARG_OF_PERICENTER": 38.3993, "MEAN_ANOMALY": 321.7247, "EPHEMERIS_TYPE": 0, "CLASSIFICATION_TYPE": "U", "NORAD_CAT_ID": 40889, "ELEMENT_SET_NO": 999, "REV_AT_EPOCH": 6365, "BSTAR": 0, "MEAN_MOTION_DOT": 3.5e-07, "MEAN_MOTION_DDOT": 0}, "tle": {"line1": "1 40889U 15045A   25336.14441561  .00000035  00000+0  00000+0 0  9995", "line2": "2 40889  55.0073 227.0512 0005835  38.3993 321.7247  1.70472886 63655"}}, "geometry": {"type": "Point", "coordinates": [-168.08369594417294, -39.403463398055194]}}, {"type": "Feature", "properties": {"norad_id": 40890, "name": "GSAT0206 (GALILEO 10)", "group": "galileo", "lat": 4.973201865296118, "lon": 43.49823894192083, "alt_km": 23230.112393301453, "timestamp": "2025-12-04T09:47:37.784246+00:00", "meta": {"OBJECT_NAME": "GSAT0206 (GALILEO 10)", "OBJECT_ID": "2015-045B", "EPOCH": "2025-12-01T18:40:58.746144", "MEAN_MOTION": 1.70473031, "ECCENTRICITY": 0.0003438, "INCLINATION": 55.0064, "RA_OF_ASC_NODE": 227.0564, "ARG_OF_PERICENTER": 30.2471, "MEAN_ANOMALY": 329.8532, "EPHEMERIS_TYPE": 0, "CLASSIFICATION_TYPE": "U", "NORAD_CAT_ID": 40890, "ELEMENT_SET_NO": 999, "REV_AT_EPOCH": 6367, "BSTAR": 0, "MEAN_MOTION_DOT": 3.4e-07, "MEAN_MOTION_DDOT": 0}, "tle": {"line1": "1 40890U 15045B   25335.77845771  .00000034  00000+0  00000+0 0  9995", "line2": "2 40890  55.0064 227.0564 0003438  30.2471 329.8532  1.70473031 63674"}}, "geometry": {"type": "Point", "coordinates": [43.49823894192083, 4.973201865296118]}}, {"type": "Feature", "properties": {"norad_id": 41174, "name": "GSAT0209 (GALILEO 12)", "group": "galileo", "lat": 51.23236898443865, "lon": 164.71157327431027, "alt_km": 23214.14537238469, "timestamp": "2025-12-04T09:47:37.784258+00:00", "meta": {"OBJECT_NAME": "GSAT0209 (GALILEO 12)", "OBJECT_ID": "2015-079A", "EPOCH": "2025-12-01T22:43:10.411392", "MEAN_MOTION": 1.70474306, "ECCENTRICITY": 0.0002352, "INCLINATION": 55.7062, "RA_OF_ASC_NODE": 106.6773, "ARG_OF_PERICENTER": 357.4206, "MEAN_ANOMALY": 2.5431, "EPHEMERIS_TYPE": 0, "CLASSIFICATION_TYPE": "U", "NORAD_CAT_ID": 41174, "ELEMENT_SET_NO": 999, "REV_AT_EPOCH": 6141, "BSTAR": 0, "MEAN_MOTION_DOT": 3.5e-07, "MEAN_MOTION_DDOT": 0}, "tle": {"line1": "1 41174U 15079A   25335.94664828  .00000035  00000+0  00000+0 0  9990", "line2": "2 41174  55.7062 106.6773 0002352 357.4206   2.5431  1.70474306 61412"}}, "geometry": {"type": "Point", "coordinates": [164.71157327431027, 51.23236898443865]}}]}